STARLINK-1008
1 44714U 19074B   26096.10229143  .00089763  00000+0  26755-2 0  9995
2 44714  53.1556  51.0210 0003244 118.4382 241.6947 15.33929972353077
